{
"type": "FeatureCollection",
"features": [
{
  "type": "Feature",
  "id": "way/123265061",
  "properties": {
    "addr:city": "Wollerau",
    "addr:housenumber": "6",
    "addr:postcode": "8832",
    "addr:street": "Bächergässli",
    "amenity": "kindergarten",
    "building": "yes",
    "name": "Kindergarten Mehrzweckgebäude",
    "id": "way/123265061"
  },
  "geometry": {
    "type": "Polygon",
    "coordinates": [
      [
        [
          8.7204367,
          47.1963307
        ],
        [
          8.7208333,
          47.1962434
        ],
        [
          8.7208769,
          47.1963348
        ],
        [
          8.7207599,
          47.1963605
        ],
        [
          8.7207993,
          47.1964434
        ],
        [
          8.7206575,
          47.1964746
        ],
        [
          8.7206199,
          47.1963957
        ],
        [
          8.7204822,
          47.196426
        ],
        [
          8.7204367,
          47.1963307
        ]
      ]
    ]
  }
},
{
  "type": "Feature",
  "id": "way/189410241",
  "properties": {
    "addr:housenumber": "7.2",
    "addr:street": "Bächmatt",
    "alt_name": "Kindergarten Bächmatt",
    "amenity": "kindergarten",
    "building": "yes",
    "name": "Kindergarten Bäch",
    "id": "way/189410241"
  },
  "geometry": {
    "type": "Polygon",
    "coordinates": [
      [
        [
          8.7321024,
          47.2044097
        ],
        [
          8.7322102,
          47.2044329
        ],
        [
          8.7322093,
          47.2044354
        ],
        [
          8.7322959,
          47.2044544
        ],
        [
          8.7322774,
          47.204495
        ],
        [
          8.7321895,
          47.2044758
        ],
        [
          8.7321152,
          47.2046364
        ],
        [
          8.7320077,
          47.2046144
        ],
        [
          8.7321024,
          47.2044097
        ]
      ]
    ]
  }
},
{
  "type": "Feature",
  "id": "way/189410242",
  "properties": {
    "addr:city": "Bäch",
    "addr:housenumber": "7",
    "addr:postcode": "8806",
    "addr:street": "Bächmatt",
    "alt_name": "Kindergarten Bächmatt",
    "amenity": "kindergarten",
    "building": "kindergarten",
    "name": "Kindergarten Bäch",
    "id": "way/189410242"
  },
  "geometry": {
    "type": "Polygon",
    "coordinates": [
      [
        [
          8.7321781,
          47.2045566
        ],
        [
          8.7323123,
          47.2045848
        ],
        [
          8.732298,
          47.2046169
        ],
        [
          8.7323322,
          47.2046239
        ],
        [
          8.7322997,
          47.2046964
        ],
        [
          8.7322652,
          47.2046892
        ],
        [
          8.7322502,
          47.204723
        ],
        [
          8.7321162,
          47.2046948
        ],
        [
          8.7321781,
          47.2045566
        ]
      ]
    ]
  }
},
{
  "type": "Feature",
  "id": "way/193356366",
  "properties": {
    "addr:city": "Galgenen",
    "addr:housenumber": "15a",
    "addr:postcode": "8854",
    "addr:street": "Büelstrasse",
    "amenity": "kindergarten",
    "building": "kindergarten",
    "name": "Kindergarten Büel",
    "id": "way/193356366"
  },
  "geometry": {
    "type": "Polygon",
    "coordinates": [
      [
        [
          8.8938311,
          47.17421
        ],
        [
          8.8941266,
          47.1742463
        ],
        [
          8.8940971,
          47.1743558
        ],
        [
          8.8938945,
          47.1743316
        ],
        [
          8.8938907,
          47.1743459
        ],
        [
          8.8937982,
          47.1743346
        ],
        [
          8.8938311,
          47.17421
        ]
      ]
    ]
  }
},
{
  "type": "Feature",
  "id": "way/195276983",
  "properties": {
    "addr:city": "Wilen",
    "addr:housenumber": "17",
    "addr:postcode": "8832",
    "addr:street": "Schulhausstrasse",
    "amenity": "kindergarten",
    "building": "school",
    "name": "Kindergarten Wilen",
    "id": "way/195276983"
  },
  "geometry": {
    "type": "Polygon",
    "coordinates": [
      [
        [
          8.7325244,
          47.1977541
        ],
        [
          8.7326323,
          47.197692
        ],
        [
          8.7326322,
          47.1976691
        ],
        [
          8.7327614,
          47.1976746
        ],
        [
          8.7327514,
          47.1977838
        ],
        [
          8.732781,
          47.1977851
        ],
        [
          8.7327701,
          47.1979052
        ],
        [
          8.7327324,
          47.1979036
        ],
        [
          8.7327245,
          47.197991
        ],
        [
          8.7325968,
          47.1979856
        ],
        [
          8.7326096,
          47.1978451
        ],
        [
          8.7324768,
          47.1978395
        ],
        [
          8.7324848,
          47.1977516
        ],
        [
          8.7325244,
          47.1977541
        ]
      ]
    ]
  }
},
{
  "type": "Feature",
  "id": "way/196185530",
  "properties": {
    "addr:city": "Schübelbach",
    "addr:country": "CH",
    "addr:housenumber": "10",
    "addr:postcode": "8862",
    "addr:street": "Grünhaldenstrasse",
    "amenity": "kindergarten",
    "building": "yes",
    "name": "Kindergarten",
    "id": "way/196185530"
  },
  "geometry": {
    "type": "Polygon",
    "coordinates": [
      [
        [
          8.9263229,
          47.1744569
        ],
        [
          8.9260748,
          47.1745135
        ],
        [
          8.92607,
          47.1745037
        ],
        [
          8.9260014,
          47.1743649
        ],
        [
          8.9262494,
          47.1743082
        ],
        [
          8.9262664,
          47.1743425
        ],
        [
          8.9263229,
          47.1744569
        ]
      ]
    ]
  }
},
{
  "type": "Feature",
  "id": "way/196957357",
  "properties": {
    "addr:city": "Arth",
    "addr:housenumber": "4",
    "addr:postcode": "6415",
    "addr:street": "Bahnhofstrasse",
    "amenity": "kindergarten",
    "building": "school",
    "check_date": "2024-11-17",
    "name": "Kindergarten Altes Schulhaus",
    "id": "way/196957357"
  },
  "geometry": {
    "type": "Polygon",
    "coordinates": [
      [
        [
          8.5236573,
          47.0641629
        ],
        [
          8.5235307,
          47.064224
        ],
        [
          8.5234777,
          47.0641727
        ],
        [
          8.5234098,
          47.0642068
        ],
        [
          8.5233456,
          47.064148
        ],
        [
          8.5234144,
          47.0641133
        ],
        [
          8.5233609,
          47.0640624
        ],
        [
          8.5234885,
          47.0639999
        ],
        [
          8.5236573,
          47.0641629
        ]
      ]
    ]
  }
},
{
  "type": "Feature",
  "id": "way/201789940",
  "properties": {
    "addr:city": "Altendorf",
    "addr:housenumber": "1",
    "addr:postcode": "8852",
    "addr:street": "Oberdorfstrasse",
    "amenity": "kindergarten",
    "building": "yes",
    "name": "Kindergarten Violett und Blau",
    "id": "way/201789940"
  },
  "geometry": {
    "type": "Polygon",
    "coordinates": [
      [
        [
          8.8305085,
          47.1913054
        ],
        [
          8.830474,
          47.1912444
        ],
        [
          8.8305347,
          47.1912289
        ],
        [
          8.8305208,
          47.1912039
        ],
        [
          8.8307143,
          47.1911529
        ],
        [
          8.8307283,
          47.1911777
        ],
        [
          8.8307886,
          47.1911619
        ],
        [
          8.8308234,
          47.1912227
        ],
        [
          8.8308059,
          47.1912272
        ],
        [
          8.8308209,
          47.1912539
        ],
        [
          8.8305413,
          47.1913283
        ],
        [
          8.8305265,
          47.191301
        ],
        [
          8.8305085,
          47.1913054
        ]
      ]
    ]
  }
},
{
  "type": "Feature",
  "id": "way/202870866",
  "properties": {
    "amenity": "kindergarten",
    "building": "kindergarten",
    "building:levels": "1",
    "isced:level": "0",
    "name": "Doppelkindergarten Spielweg",
    "roof:shape": "gabled",
    "id": "way/202870866"
  },
  "geometry": {
    "type": "Polygon",
    "coordinates": [
      [
        [
          8.9000377,
          47.1740586
        ],
        [
          8.9001016,
          47.1739585
        ],
        [
          8.9001505,
          47.173973
        ],
        [
          8.9001713,
          47.1739404
        ],
        [
          8.9003925,
          47.1740057
        ],
        [
          8.9003693,
          47.174042
        ],
        [
          8.9004108,
          47.1740542
        ],
        [
          8.9003778,
          47.1741058
        ],
        [
          8.900243,
          47.174066
        ],
        [
          8.9002143,
          47.1741108
        ],
        [
          8.9000377,
          47.1740586
        ]
      ]
    ]
  }
},
{
  "type": "Feature",
  "id": "way/204264254",
  "properties": {
    "addr:city": "Goldau",
    "addr:housenumber": "38",
    "addr:postcode": "6410",
    "addr:street": "Gotthardstrasse",
    "amenity": "kindergarten",
    "building": "school",
    "name": "Altes Schulhaus",
    "id": "way/204264254"
  },
  "geometry": {
    "type": "Polygon",
    "coordinates": [
      [
        [
          8.5455801,
          47.0463181
        ],
        [
          8.5456101,
          47.0462567
        ],
        [
          8.5455566,
          47.0462445
        ],
        [
          8.5455727,
          47.0462115
        ],
        [
          8.5455896,
          47.0462153
        ],
        [
          8.5456367,
          47.0461189
        ],
        [
          8.5457879,
          47.0461534
        ],
        [
          8.5457531,
          47.0462247
        ],
        [
          8.5457482,
          47.0462236
        ],
        [
          8.5456898,
          47.0463431
        ],
        [
          8.5455801,
          47.0463181
        ]
      ]
    ]
  }
},
{
  "type": "Feature",
  "id": "way/204628561",
  "properties": {
    "addr:city": "Oberarth",
    "addr:housenumber": "1",
    "addr:postcode": "6414",
    "addr:street": "Mühlemoosweg",
    "amenity": "kindergarten",
    "building": "school",
    "name": "Kindergarten Oberarth",
    "id": "way/204628561"
  },
  "geometry": {
    "type": "Polygon",
    "coordinates": [
      [
        [
          8.5367168,
          47.0562766
        ],
        [
          8.536714,
          47.0561781
        ],
        [
          8.536815,
          47.0561768
        ],
        [
          8.5368146,
          47.0561602
        ],
        [
          8.5368608,
          47.0561596
        ],
        [
          8.5368619,
          47.0562013
        ],
        [
          8.5368947,
          47.0562009
        ],
        [
          8.5368968,
          47.0562743
        ],
        [
          8.5367168,
          47.0562766
        ]
      ]
    ]
  }
},
{
  "type": "Feature",
  "id": "way/209562676",
  "properties": {
    "addr:city": "Siebnen",
    "addr:housenumber": "3",
    "addr:postcode": "8854",
    "addr:street": "Stationsweg",
    "amenity": "kindergarten",
    "building": "house",
    "building:levels": "2",
    "email": "info@kita-aladin.ch",
    "name": "Kita Aladin",
    "opening_hours": "Mo-Fr 06:30-18:30; PH off",
    "phone": "+41 77 5223194;+41 55 4601085",
    "roof:shape": "gabled",
    "website": "https://kita-aladin-siebnen.ch",
    "id": "way/209562676"
  },
  "geometry": {
    "type": "Polygon",
    "coordinates": [
      [
        [
          8.902255,
          47.1823699
        ],
        [
          8.9024202,
          47.1823686
        ],
        [
          8.9024217,
          47.1824589
        ],
        [
          8.9022565,
          47.1824603
        ],
        [
          8.902255,
          47.1823699
        ]
      ]
    ]
  }
},
{
  "type": "Feature",
  "id": "way/397729693",
  "properties": {
    "addr:city": "Tuggen",
    "addr:housenumber": "5a",
    "addr:postcode": "8856",
    "addr:street": "Tödistrasse",
    "amenity": "kindergarten",
    "building": "kindergarten",
    "name": "Kindergarten Eneda",
    "id": "way/397729693"
  },
  "geometry": {
    "type": "Polygon",
    "coordinates": [
      [
        [
          8.9449975,
          47.2022121
        ],
        [
          8.9450585,
          47.2021313
        ],
        [
          8.9452294,
          47.2021908
        ],
        [
          8.945155,
          47.2022894
        ],
        [
          8.9451008,
          47.2022705
        ],
        [
          8.9451142,
          47.2022527
        ],
        [
          8.9449975,
          47.2022121
        ]
      ]
    ]
  }
},
{
  "type": "Feature",
  "id": "way/445892043",
  "properties": {
    "addr:city": "Goldau",
    "addr:housenumber": "1",
    "addr:postcode": "6410",
    "addr:street": "Ringstrasse",
    "amenity": "kindergarten",
    "building": "school",
    "name": "Kindergarten Vogelsang",
    "id": "way/445892043"
  },
  "geometry": {
    "type": "Polygon",
    "coordinates": [
      [
        [
          8.547071,
          47.0513437
        ],
        [
          8.5470803,
          47.0512745
        ],
        [
          8.5470671,
          47.0512743
        ],
        [
          8.5470634,
          47.0512179
        ],
        [
          8.5470961,
          47.0512173
        ],
        [
          8.5471053,
          47.0512013
        ],
        [
          8.5471275,
          47.0511933
        ],
        [
          8.547153,
          47.0511922
        ],
        [
          8.5471726,
          47.0512021
        ],
        [
          8.5472888,
          47.0512071
        ],
        [
          8.547314,
          47.0511993
        ],
        [
          8.5473419,
          47.051205
        ],
        [
          8.5473581,
          47.0512167
        ],
        [
          8.5473616,
          47.051231
        ],
        [
          8.5473973,
          47.0512316
        ],
        [
          8.5473815,
          47.051289
        ],
        [
          8.5473683,
          47.0512879
        ],
        [
          8.5473602,
          47.0513556
        ],
        [
          8.547071,
          47.0513437
        ]
      ]
    ]
  }
},
{
  "type": "Feature",
  "id": "way/695596343",
  "properties": {
    "addr:city": "Tuggen",
    "addr:housenumber": "2",
    "addr:postcode": "8856",
    "addr:street": "Schulstrasse",
    "amenity": "kindergarten",
    "building": "kindergarten",
    "name": "Kindergarten Riedland A+B",
    "id": "way/695596343"
  },
  "geometry": {
    "type": "Polygon",
    "coordinates": [
      [
        [
          8.9462054,
          47.2015843
        ],
        [
          8.946192,
          47.201673
        ],
        [
          8.9460776,
          47.2016656
        ],
        [
          8.9460754,
          47.2016816
        ],
        [
          8.9460447,
          47.2016795
        ],
        [
          8.9460459,
          47.2016625
        ],
        [
          8.9458589,
          47.2016512
        ],
        [
          8.9458727,
          47.201562
        ],
        [
          8.9462054,
          47.2015843
        ]
      ]
    ]
  }
},
{
  "type": "Feature",
  "id": "way/1305300539",
  "properties": {
    "amenity": "kindergarten",
    "name": "In den Matten",
    "id": "way/1305300539"
  },
  "geometry": {
    "type": "Polygon",
    "coordinates": [
      [
        [
          8.741767,
          47.1310533
        ],
        [
          8.7419684,
          47.1309536
        ],
        [
          8.7423542,
          47.1311624
        ],
        [
          8.7420163,
          47.1313177
        ],
        [
          8.741767,
          47.1310533
        ]
      ]
    ]
  }
},
{
  "type": "Feature",
  "id": "node/762056302",
  "properties": {
    "addr:housenumber": "4",
    "addr:street": "Friedhofweg",
    "amenity": "kindergarten",
    "name": "Kindergarten Waldheim",
    "id": "node/762056302"
  },
  "geometry": {
    "type": "Point",
    "coordinates": [
      8.7608985,
      47.2049153
    ]
  }
},
{
  "type": "Feature",
  "id": "node/972518468",
  "properties": {
    "addr:city": "Lachen",
    "addr:housenumber": "12",
    "addr:postcode": "8853",
    "addr:street": "Landsgemeindeweg",
    "amenity": "kindergarten",
    "isced:level": "0",
    "name": "Kindergarten Oberdorf",
    "name:en": "kindergarten upper village",
    "operator": "Gemeinde Lachen",
    "operator:type": "public",
    "website": "https://www.schule-lachen.ch/kindergartengebaeude/384",
    "id": "node/972518468"
  },
  "geometry": {
    "type": "Point",
    "coordinates": [
      8.8567974,
      47.1875553
    ]
  }
},
{
  "type": "Feature",
  "id": "node/1277456054",
  "properties": {
    "amenity": "kindergarten",
    "contact:city": "Unteriberg",
    "contact:housenumber": "29",
    "contact:phone": "+41 55 414 16 91",
    "contact:postcode": "8842",
    "contact:street": "Waagtalstrasse",
    "contact:website": "https://www.unteriberg.ch/schule/primarschule/ansprechspersonen/schulhauswartschulhaeuser/",
    "isced:level": "0",
    "name": "Kindergarten 1+2 altes Schulhaus Unteriberg",
    "operator:type": "public",
    "id": "node/1277456054"
  },
  "geometry": {
    "type": "Point",
    "coordinates": [
      8.8023054,
      47.0567852
    ]
  }
},
{
  "type": "Feature",
  "id": "node/2069488732",
  "properties": {
    "amenity": "kindergarten",
    "name": "Kinderhort Freienbach",
    "id": "node/2069488732"
  },
  "geometry": {
    "type": "Point",
    "coordinates": [
      8.7316766,
      47.1980796
    ]
  }
},
{
  "type": "Feature",
  "id": "node/2339513598",
  "properties": {
    "addr:city": "Merlischachen",
    "addr:housenumber": "201",
    "addr:postcode": "6402",
    "addr:street": "Luzernerstrasse",
    "amenity": "kindergarten",
    "id": "node/2339513598"
  },
  "geometry": {
    "type": "Point",
    "coordinates": [
      8.4086773,
      47.0656931
    ]
  }
},
{
  "type": "Feature",
  "id": "node/3734002662",
  "properties": {
    "addr:city": "Einsiedeln",
    "addr:country": "CH",
    "addr:housenumber": "2",
    "addr:postcode": "8840",
    "addr:street": "Eisenbahnstrasse",
    "amenity": "kindergarten",
    "email": "info@raebelnaeschtli.ch",
    "name": "Kleinkindertreff Räbelnäschtli",
    "phone": "+41 78 611 13 04",
    "website": "http://www.räbelnäschtli.ch",
    "id": "node/3734002662"
  },
  "geometry": {
    "type": "Point",
    "coordinates": [
      8.7461279,
      47.1288072
    ]
  }
},
{
  "type": "Feature",
  "id": "node/4331065689",
  "properties": {
    "amenity": "kindergarten",
    "id": "node/4331065689"
  },
  "geometry": {
    "type": "Point",
    "coordinates": [
      8.6582444,
      47.026071
    ]
  }
},
{
  "type": "Feature",
  "id": "node/5755459275",
  "properties": {
    "addr:city": "Schindellegi",
    "addr:country": "CH",
    "addr:housenumber": "19",
    "addr:postcode": "8834",
    "addr:street": "Etzelstrasse",
    "amenity": "kindergarten",
    "name": "Kindergarten Etzel",
    "website": "https://www.ps-feusisberg.com/",
    "id": "node/5755459275"
  },
  "geometry": {
    "type": "Point",
    "coordinates": [
      8.7146728,
      47.1752379
    ]
  }
},
{
  "type": "Feature",
  "id": "node/5755484420",
  "properties": {
    "addr:city": "Feusisberg",
    "addr:housenumber": "8",
    "addr:postcode": "8835",
    "addr:street": "Schulhausstrasse",
    "amenity": "kindergarten",
    "name": "Kindergarten Feusisberg",
    "website": "https://www.ps-feusisberg.com/",
    "id": "node/5755484420"
  },
  "geometry": {
    "type": "Point",
    "coordinates": [
      8.7477247,
      47.1881602
    ]
  }
},
{
  "type": "Feature",
  "id": "node/5822883924",
  "properties": {
    "addr:city": "Wangen",
    "addr:housenumber": "75",
    "addr:postcode": "8855",
    "addr:street": "Seestrasse",
    "amenity": "kindergarten",
    "email": "info@pswangensz.ch",
    "level": "0",
    "name": "Kindergarten Nuolen",
    "operator:type": "public",
    "website": "https://www.pswangensz.ch/",
    "wheelchair": "no",
    "id": "node/5822883924"
  },
  "geometry": {
    "type": "Point",
    "coordinates": [
      8.8886674,
      47.2033593
    ]
  }
},
{
  "type": "Feature",
  "id": "node/5822915980",
  "properties": {
    "addr:city": "Siebnen",
    "addr:housenumber": "14",
    "addr:postcode": "8854",
    "addr:street": "Weidweg",
    "amenity": "kindergarten",
    "check_date": "2023-05-07",
    "email": "info@pswangensz.ch",
    "level": "0",
    "name": "Kindergarten Weidweg",
    "operator:type": "public",
    "website": "https://www.pswangensz.ch/",
    "wheelchair": "yes",
    "id": "node/5822915980"
  },
  "geometry": {
    "type": "Point",
    "coordinates": [
      8.8986646,
      47.1819802
    ]
  }
},
{
  "type": "Feature",
  "id": "node/5822948405",
  "properties": {
    "addr:city": "Wangen",
    "addr:housenumber": "7",
    "addr:postcode": "8855",
    "addr:street": "Dorfplatz",
    "amenity": "kindergarten",
    "email": "info@pswangensz.ch",
    "name": "Kindergarten Wangen",
    "website": "https://www.pswangensz.ch/",
    "id": "node/5822948405"
  },
  "geometry": {
    "type": "Point",
    "coordinates": [
      8.8945838,
      47.192466
    ]
  }
},
{
  "type": "Feature",
  "id": "node/5823036605",
  "properties": {
    "addr:city": "Siebnen",
    "addr:housenumber": "8",
    "addr:postcode": "8854",
    "addr:street": "Fabrikstrasse",
    "amenity": "kindergarten",
    "name": "Kinderkrippe Z'Wirbelhus",
    "phone": "+41 55 440 27 26",
    "id": "node/5823036605"
  },
  "geometry": {
    "type": "Point",
    "coordinates": [
      8.8964376,
      47.1757746
    ]
  }
},
{
  "type": "Feature",
  "id": "node/7177454101",
  "properties": {
    "addr:city": "Siebnen",
    "addr:housenumber": "11",
    "addr:postcode": "8854",
    "addr:street": "Unterer Althof",
    "amenity": "kindergarten",
    "contact:phone": "+41 79 569 43 81",
    "level": "0",
    "name": "Spielgruppe Flügäpilz",
    "opening_hours": "Mo-Th 09:00-11:00",
    "operator": "Rita Heiz",
    "id": "node/7177454101"
  },
  "geometry": {
    "type": "Point",
    "coordinates": [
      8.9029646,
      47.1811682
    ]
  }
},
{
  "type": "Feature",
  "id": "node/7191372873",
  "properties": {
    "alt_name": "Winkelweg Chindsgi",
    "amenity": "kindergarten",
    "level": "0",
    "name": "Kindergarten Winkelweg",
    "operator:type": "public",
    "id": "node/7191372873"
  },
  "geometry": {
    "type": "Point",
    "coordinates": [
      8.8539326,
      47.1928394
    ]
  }
},
{
  "type": "Feature",
  "id": "node/7398243339",
  "properties": {
    "amenity": "kindergarten",
    "name": "Bauernhof Spielgruppe Rosenzwergli",
    "operator:type": "private",
    "id": "node/7398243339"
  },
  "geometry": {
    "type": "Point",
    "coordinates": [
      8.9117588,
      47.1875662
    ]
  }
},
{
  "type": "Feature",
  "id": "node/10072682063",
  "properties": {
    "amenity": "kindergarten",
    "check_date": "2025-03-22",
    "isced:level": "0",
    "name": "ABC Learning Tree",
    "operator": "ABC Learning Tree GmbH",
    "id": "node/10072682063"
  },
  "geometry": {
    "type": "Point",
    "coordinates": [
      8.7139424,
      47.197311
    ]
  }
},
{
  "type": "Feature",
  "id": "node/10072888438",
  "properties": {
    "addr:city": "Einsiedeln",
    "addr:housenumber": "3",
    "addr:postcode": "8840",
    "addr:street": "Paracelsuspark",
    "amenity": "kindergarten",
    "name": "Kindergarten Einsiedlerhof",
    "id": "node/10072888438"
  },
  "geometry": {
    "type": "Point",
    "coordinates": [
      8.7504438,
      47.1282365
    ]
  }
},
{
  "type": "Feature",
  "id": "node/10072901671",
  "properties": {
    "addr:city": "Einsiedeln",
    "addr:housenumber": "20",
    "addr:postcode": "8840",
    "addr:street": "Hauptstrasse",
    "amenity": "kindergarten",
    "name": "Kindergarten Zwei Raben",
    "id": "node/10072901671"
  },
  "geometry": {
    "type": "Point",
    "coordinates": [
      8.7450606,
      47.1269685
    ]
  }
},
{
  "type": "Feature",
  "id": "node/10076261858",
  "properties": {
    "amenity": "kindergarten",
    "name": "Kindergarten Seematt 2A, B, C, D",
    "id": "node/10076261858"
  },
  "geometry": {
    "type": "Point",
    "coordinates": [
      8.4378453,
      47.0765679
    ]
  }
},
{
  "type": "Feature",
  "id": "node/10076281188",
  "properties": {
    "amenity": "kindergarten",
    "name": "Kindergarten Seefeld",
    "id": "node/10076281188"
  },
  "geometry": {
    "type": "Point",
    "coordinates": [
      8.8547355,
      47.1972799
    ]
  }
},
{
  "type": "Feature",
  "id": "node/10092186650",
  "properties": {
    "amenity": "kindergarten",
    "name": "Kindergarten Burg 1+2",
    "id": "node/10092186650"
  },
  "geometry": {
    "type": "Point",
    "coordinates": [
      8.9754461,
      47.1711871
    ]
  }
},
{
  "type": "Feature",
  "id": "node/10094691201",
  "properties": {
    "amenity": "kindergarten",
    "id": "node/10094691201"
  },
  "geometry": {
    "type": "Point",
    "coordinates": [
      8.8977051,
      47.1227246
    ]
  }
},
{
  "type": "Feature",
  "id": "node/11143880046",
  "properties": {
    "addr:city": "Pfäffikon (SZ)",
    "addr:housenumber": "98",
    "addr:postcode": "8808",
    "addr:street": "Churerstrasse",
    "amenity": "kindergarten",
    "name": "Kindergarten Hochhaus",
    "id": "node/11143880046"
  },
  "geometry": {
    "type": "Point",
    "coordinates": [
      8.7851326,
      47.2008887
    ]
  }
},
{
  "type": "Feature",
  "id": "node/11143901462",
  "properties": {
    "addr:city": "Pfäffikon SZ",
    "addr:housenumber": "15",
    "addr:postcode": "8808",
    "addr:street": "Huobstrasse",
    "amenity": "kindergarten",
    "name": "Kindergarten Huob",
    "id": "node/11143901462"
  },
  "geometry": {
    "type": "Point",
    "coordinates": [
      8.7825323,
      47.2002427
    ]
  }
},
{
  "type": "Feature",
  "id": "node/11379151495",
  "properties": {
    "amenity": "kindergarten",
    "name": "Kindergarten Türkis",
    "id": "node/11379151495"
  },
  "geometry": {
    "type": "Point",
    "coordinates": [
      8.8368318,
      47.1900827
    ]
  }
},
{
  "type": "Feature",
  "id": "node/11379151496",
  "properties": {
    "amenity": "kindergarten",
    "name": "Kindergarten Orange",
    "id": "node/11379151496"
  },
  "geometry": {
    "type": "Point",
    "coordinates": [
      8.8366236,
      47.1901495
    ]
  }
},
{
  "type": "Feature",
  "id": "node/11379230238",
  "properties": {
    "amenity": "kindergarten",
    "name": "Kindergarten Geld",
    "id": "node/11379230238"
  },
  "geometry": {
    "type": "Point",
    "coordinates": [
      8.8308767,
      47.1909269
    ]
  }
},
{
  "type": "Feature",
  "id": "node/11379230239",
  "properties": {
    "amenity": "kindergarten",
    "name": "Kindergarten Rot",
    "id": "node/11379230239"
  },
  "geometry": {
    "type": "Point",
    "coordinates": [
      8.8306829,
      47.1909781
    ]
  }
},
{
  "type": "Feature",
  "id": "node/11379457702",
  "properties": {
    "amenity": "kindergarten",
    "name": "Kindergarten Herrengasse",
    "id": "node/11379457702"
  },
  "geometry": {
    "type": "Point",
    "coordinates": [
      8.6491483,
      47.0224359
    ]
  }
},
{
  "type": "Feature",
  "id": "node/11379484114",
  "properties": {
    "amenity": "kindergarten",
    "name": "Kindergarten Mythen",
    "id": "node/11379484114"
  },
  "geometry": {
    "type": "Point",
    "coordinates": [
      8.6669374,
      47.0162445
    ]
  }
},
{
  "type": "Feature",
  "id": "node/11563738992",
  "properties": {
    "amenity": "kindergarten",
    "name": "Kindergarten Ausserdorf",
    "id": "node/11563738992"
  },
  "geometry": {
    "type": "Point",
    "coordinates": [
      8.903233,
      47.1754223
    ]
  }
}
]
}
